NORAD_CAT_ID,OBJECT_NAME,OBJECT_TYPE,EPOCH,MEAN_MOTION,ECCENTRICITY,INCLINATION,RA_OF_ASC_NODE,ARG_OF_PERICENTER,MEAN_ANOMALY,BSTAR,MEAN_MOTION_DOT,MEAN_MOTION_DDOT,TLE_LINE0,TLE_LINE1,TLE_LINE2,SEMIMAJOR_AXIS,PERIOD,APOGEE,PERIGEE,DECAYED
53016.0,STARLINK-4283,PAYLOAD,2023-11-28 20:30:59,15.08844344,0.0001818,53.2167,218.3786,104.3867,255.7327,0.00010634,1.405e-05,0.0,0 STARLINK-4283,1 53016U 22076AG  23332.85485123  .00001405  00000-0  10634-3 0  9998,2 53016  53.2167 218.3786 0001818 104.3867 255.7327 15.08844344 77874,6917.867,95.437,540.99,538.474,0.0
53016.0,STARLINK-4283,PAYLOAD,2023-11-28 22:06:22,15.0884135,0.0001749,53.217,218.0808,101.8729,258.2459,0.00019256,2.778e-05,0.0,0 STARLINK-4283,1 53016U 22076AG  23332.92109259  .00002778  00000-0  19256-3 0  9992,2 53016  53.2170 218.0808 0001749 101.8729 258.2459 15.08841350 77410,6917.876,95.437,540.951,538.531,0.0
53016.0,STARLINK-4283,PAYLOAD,2023-11-30 01:07:55,15.0885154,0.0001601,53.2166,213.0135,78.4961,281.6211,0.00010951,1.456e-05,0.0,0 STARLINK-4283,1 53016U 22076AG  23334.04716582  .00001456  00000-0  10951-3 0  9995,2 53016  53.2166 213.0135 0001601  78.4961 281.6211 15.08851540 78056,6917.845,95.437,540.818,538.603,0.0
53016.0,STARLINK-4283,PAYLOAD,2023-11-30 20:12:33,15.08838757,0.0001616,53.216,209.4461,113.1794,246.9369,5.7776e-05,6.32e-06,0.0,0 STARLINK-4283,1 53016U 22076AG  23334.84205259  .00000632  00000-0  57776-4 0  9999,2 53016  53.2160 209.4461 0001616 113.1794 246.9369 15.08838757 78174,6917.884,95.438,540.867,538.631,0.0
53016.0,STARLINK-4283,PAYLOAD,2023-12-01 21:38:43,15.08850027,0.0001586,53.2151,204.6967,78.8507,281.2663,0.00016857,2.397e-05,0.0,0 STARLINK-4283,1 53016U 22076AG  23335.90189154  .00002397  00000-0  16857-3 0  9996,2 53016  53.2151 204.6967 0001586  78.8507 281.2663 15.08850027 77865,6917.85,95.437,540.812,538.618,0.0
53016.0,STARLINK-4283,PAYLOAD,2023-12-01 23:14:06,15.08851728,0.0001715,53.2152,204.4016,73.5974,286.5207,0.00033736,5.087e-05,0.0,0 STARLINK-4283,1 53016U 22076AG  23335.96813129  .00005087  00000-0  33736-3 0  9992,2 53016  53.2152 204.4016 0001715  73.5974 286.5207 15.08851728 77875,6917.845,95.437,540.896,538.523,0.0
53016.0,STARLINK-4283,PAYLOAD,2023-12-02 19:54:07,15.08845319,0.00015,53.2151,200.5327,92.9274,267.189,0.00016276,2.304e-05,0.0,0 STARLINK-4283,1 53016U 22076AG  23336.82925164  .00002304  00000-0  16276-3 0  9990,2 53016  53.2151 200.5327 0001500  92.9274 267.1890 15.08845319 78475,6917.864,95.437,540.767,538.691,0.0
53016.0,STARLINK-4283,PAYLOAD,2023-12-02 21:29:30,15.08845598,0.0001567,53.2149,200.2377,81.8662,278.2508,0.00016799,2.387e-05,0.0,0 STARLINK-4283,1 53016U 22076AG  23336.89549221  .00002387  00000-0  16799-3 0  9994,2 53016  53.2149 200.2377 0001567  81.8662 278.2508 15.08845598 78013,6917.863,95.437,540.812,538.644,0.0
53016.0,STARLINK-4283,PAYLOAD,2023-12-03 00:40:16,15.08850492,0.0001458,53.2154,199.6347,103.8144,256.3011,0.00024568,3.625e-05,0.0,0 STARLINK-4283,1 53016U 22076AG  23337.02796740  .00003625  00000-0  24568-3 0  9999,2 53016  53.2154 199.6347 0001458 103.8144 256.3011 15.08850492 78033,6917.848,95.437,540.722,538.705,0.0
53016.0,STARLINK-4283,PAYLOAD,2023-12-03 19:44:52,15.08837591,0.0001426,53.2155,196.0701,72.9986,287.1162,-0.00067781,-0.00011058,0.0,0 STARLINK-4283,1 53016U 22076AG  23337.82282833 -.00011058  00000-0 -67781-3 0  9995,2 53016  53.2155 196.0701 0001426  72.9986 287.1162 15.08837591 78623,6917.888,95.438,540.739,538.766,0.0
53016.0,STARLINK-4283,PAYLOAD,2023-12-04 00:31:01,15.08836629,0.0001486,53.2157,195.1773,94.214,265.9022,-0.00061901,-0.00010125,0.0,0 STARLINK-4283,1 53016U 22076AG  23338.02154733 -.00010125  00000-0 -61901-3 0  9997,2 53016  53.2157 195.1773 0001486  94.2140 265.9022 15.08836629 78180,6917.891,95.438,540.784,538.728,0.0
53016.0,STARLINK-4283,PAYLOAD,2023-12-06 01:48:01,15.08826874,0.000147,53.2154,185.9593,87.9136,272.2024,0.00022932,3.362e-05,0.0,0 STARLINK-4283,1 53016U 22076AG  23340.07501469  .00003362  00000-0  22932-3 0  9991,2 53016  53.2154 185.9593 0001470  87.9136 272.2024 15.08826874 78961,6917.921,95.438,540.802,538.769,0.0
53016.0,STARLINK-4283,PAYLOAD,2023-12-06 14:31:06,15.0883241,0.0001439,53.2147,183.581,87.3527,272.763,0.0001594,2.249e-05,0.0,0 STARLINK-4283,1 53016U 22076AG  23340.60493726  .00002249  00000-0  15940-3 0  9990,2 53016  53.2147 183.5810 0001439  87.3527 272.7630 15.08832410 78570,6917.904,95.438,540.764,538.773,0.0
53016.0,STARLINK-4283,PAYLOAD,2023-12-06 20:52:39,15.08835728,0.0001454,53.2148,182.3916,87.6417,272.4741,0.00020058,2.905e-05,0.0,0 STARLINK-4283,1 53016U 22076AG  23340.86989725  .00002905  00000-0  20058-3 0  9992,2 53016  53.2148 182.3916 0001454  87.6417 272.4741 15.08835728 78613,6917.893,95.438,540.764,538.753,0.0
53016.0,STARLINK-4283,PAYLOAD,2023-12-07 11:11:07,15.08834979,0.0001463,53.2147,179.7153,86.9112,273.2048,9.8316e-05,1.277e-05,0.0,0 STARLINK-4283,1 53016U 22076AG  23341.46605917  .00001277  00000-0  98316-4 0  9991,2 53016  53.2147 179.7153 0001463  86.9112 273.2048 15.08834979 79177,6917.896,95.438,540.773,538.749,0.0
53016.0,STARLINK-4283,PAYLOAD,2023-12-07 12:46:30,15.08835134,0.0001467,53.2148,179.418,86.9045,273.2115,0.00012837,1.755e-05,0.0,0 STARLINK-4283,1 53016U 22076AG  23341.53229992  .00001755  00000-0  12837-3 0  9998,2 53016  53.2148 179.4180 0001467  86.9045 273.2115 15.08835134 78712,6917.895,95.438,540.775,538.745,0.0
53016.0,STARLINK-4283,PAYLOAD,2023-12-08 12:37:17,15.08838824,0.0001469,53.2147,174.9573,87.0861,273.0299,0.00010462,1.377e-05,0.0,0 STARLINK-4283,1 53016U 22076AG  23342.52590002  .00001377  00000-0  10462-3 0  9993,2 53016  53.2147 174.9573 0001469  87.0861 273.0299 15.08838824 79336,6917.884,95.438,540.765,538.733,0.0
53016.0,STARLINK-4283,PAYLOAD,2023-12-08 14:12:40,15.08839376,0.0001471,53.2147,174.6599,87.4751,272.641,0.000124,1.686e-05,0.0,0 STARLINK-4283,1 53016U 22076AG  23342.59213992  .00001686  00000-0  12400-3 0  9997,2 53016  53.2147 174.6599 0001471  87.4751 272.6410 15.08839376 78877,6917.882,95.438,540.765,538.73,0.0
53016.0,STARLINK-4283,PAYLOAD,2023-12-08 22:09:36,15.08841374,0.000148,53.2147,173.1731,86.6365,273.4797,0.00011377,1.523e-05,0.0,0 STARLINK-4283,1 53016U 22076AG  23342.92333904  .00001523  00000-0  11377-3 0  9992,2 53016  53.2147 173.1731 0001480  86.6365 273.4797 15.08841374 78925,6917.876,95.437,540.765,538.717,0.0
53016.0,STARLINK-4283,PAYLOAD,2023-12-09 12:28:04,15.0884131,0.0001484,53.2146,170.4967,86.3029,273.8132,9.404e-05,1.209e-05,0.0,0 STARLINK-4283,1 53016U 22076AG  23343.51949944  .00001209  00000-0  94040-4 0  9995,2 53016  53.2146 170.4967 0001484  86.3029 273.8132 15.08841310 79011,6917.876,95.437,540.768,538.715,0.0
53016.0,STARLINK-4283,PAYLOAD,2023-12-09 15:38:51,15.08842206,0.000146,53.2156,169.9018,88.4595,271.6565,0.00012425,1.69e-05,0.0,0 STARLINK-4283,1 53016U 22076AG  23343.65197988  .00001690  00000-0  12425-3 0  9993,2 53016  53.2156 169.9018 0001460  88.4595 271.6565 15.08842206 79502,6917.874,95.437,540.749,538.729,0.0
53016.0,STARLINK-4283,PAYLOAD,2023-12-10 18:40:24,15.08841467,0.0001491,53.2156,164.8466,87.0029,273.1134,7.0224e-05,8.3e-06,0.0,0 STARLINK-4283,1 53016U 22076AG  23344.77806117  .00000830  00000-0  70224-4 0  9995,2 53016  53.2156 164.8466 0001491  87.0029 273.1134 15.08841467 79679,6917.876,95.437,540.772,538.709,0.0
53016.0,STARLINK-4283,PAYLOAD,2023-12-11 18:31:12,15.08797641,0.0001784,53.2159,160.3839,103.0176,257.1016,0.00082029,0.00012776,0.0,0 STARLINK-4283,1 53016U 22076AG  23345.77167455  .00012776  00000-0  82029-3 0  9998,2 53016  53.2159 160.3839 0001784 103.0176 257.1016 15.08797641 79826,6918.01,95.44,541.109,538.641,0.0
53016.0,STARLINK-4283,PAYLOAD,2023-12-12 18:21:59,15.08810596,0.000136,53.2166,155.9226,107.6577,252.4564,0.00033736,5.081e-05,0.0,0 STARLINK-4283,1 53016U 22076AG  23346.76527166  .00005081  00000-0  33736-3 0  9999,2 53016  53.2166 155.9226 0001360 107.6577 252.4564 15.08810596 79976,6917.97,95.439,540.776,538.894,0.0
53016.0,STARLINK-4283,PAYLOAD,2023-12-13 18:12:45,15.08839926,0.0001421,53.2166,151.4651,99.1401,260.9752,5.6718e-05,6.15e-06,0.0,0 STARLINK-4283,1 53016U 22076AG  23347.75886415  .00000615  00000-0  56718-4 0  9998,2 53016  53.2166 151.4651 0001421  99.1401 260.9752 15.08839926 80128,6917.881,95.438,540.729,538.763,0.0
53016.0,STARLINK-4283,PAYLOAD,2023-12-14 16:28:09,15.08841384,0.0001319,53.2165,147.3043,95.204,264.9103,0.00012878,1.762e-05,0.0,0 STARLINK-4283,1 53016U 22076AG  23348.68622344  .00001762  00000-0  12878-3 0  9992,2 53016  53.2165 147.3043 0001319  95.2040 264.9103 15.08841384 79794,6917.876,95.437,540.654,538.829,0.0
53016.0,STARLINK-4283,PAYLOAD,2023-12-15 14:43:34,15.08839209,0.0001299,53.2162,143.1421,98.5906,261.5233,3.9556e-05,3.42e-06,0.0,0 STARLINK-4283,1 53016U 22076AG  23349.61358821  .00000342  00000-0  39556-4 0  9998,2 53016  53.2162 143.1421 0001299  98.5906 261.5233 15.08839209 79935,6917.883,95.438,540.646,538.849,0.0
53016.0,STARLINK-4283,PAYLOAD,2023-12-15 17:54:20,15.08839513,0.0001295,53.216,142.5454,95.108,265.006,3.6872e-05,2.99e-06,0.0,0 STARLINK-4283,1 53016U 22076AG  23349.74606776  .00000299  00000-0  36872-4 0  9996,2 53016  53.2160 142.5454 0001295  95.1080 265.0060 15.08839513 80425,6917.882,95.438,540.643,538.851,0.0
53016.0,STARLINK-4283,PAYLOAD,2023-12-16 14:34:20,15.0884371,0.0001333,53.2162,138.6796,92.8766,267.2379,9.8275e-05,1.277e-05,0.0,0 STARLINK-4283,1 53016U 22076AG  23350.60718355  .00001277  00000-0  98275-4 0  9992,2 53016  53.2162 138.6796 0001333  92.8766 267.2379 15.08843710 80083,6917.869,95.437,540.656,538.812,0.0
53016.0,STARLINK-4283,PAYLOAD,2023-12-16 17:45:06,15.08846621,0.0001434,53.2166,138.086,81.9596,278.1558,0.00012132,1.644e-05,0.0,0 STARLINK-4283,1 53016U 22076AG  23350.73966193  .00001644  00000-0  12132-3 0  9996,2 53016  53.2166 138.0860 0001434  81.9596 278.1558 15.08846621 80102,6917.86,95.437,540.717,538.733,0.0
